{"spice_id": "2024YR4", "obj_id": "2024_YR4", "signature": {"source": "NASA/JPL Small-Body Database (SBDB) API", "version": "1.3"}, "orbit": {"soln_date": "2025-02-21 06:32:02", "orbit_id": "61", "t_jup": "3.109", "elements": [{"value": ".6615502151031359", "label": "e", "units": null, "name": "e", "title": "eccentricity", "sigma": "5.0528E-6"}, {"name": "a", "title": "semi-major axis", "sigma": "3.5383E-5", "units": "au", "label": "a", "value": "2.515881729417194"}, {"sigma": "7.3771E-7", "name": "q", "title": "perihelion distance", "value": ".8514996301471995", "label": "q", "units": "au"}, {"value": "3.408181574307802", "units": "deg", "label": "i", "sigma": "1.853E-5", "title": "inclination; angle with respect to x-y ecliptic plane", "name": "i"}, {"value": "271.3656157641781", "label": "node", "units": "deg", "sigma": "9.7037E-6", "name": "om", "title": "longitude of the ascending node"}, {"label": "peri", "units": "deg", "value": "134.3613566434272", "sigma": "2.1867E-5", "name": "w", "title": "argument of perihelion"}, {"value": "40.40223221817573", "label": "M", "units": "deg", "name": "ma", "title": "mean anomaly", "sigma": ".00086607"}, {"name": "tp", "title": "time of perihelion passage", "sigma": "5.5816E-5", "value": "2460636.917583877228", "units": "TDB", "label": "tp"}, {"title": "sidereal orbital period", "name": "per", "sigma": ".030749", "units": "d", "label": "period", "value": "1457.584558352822"}, {"label": "n", "units": "deg/d", "value": ".2469839557073976", "name": "n", "title": "mean motion", "sigma": "5.2103E-6"}, {"sigma": "5.879E-5", "name": "ad", "title": "aphelion distance", "units": "au", "label": "Q", "value": "4.180263828687187"}], "covariance": {"labels": ["e", "q", "tp", "node", "peri", "i"], "elements": [{"value": ".6616131643704969", "units": null, "label": "e", "title": "eccentricity", "name": "e", "sigma": 5.05297068159968e-06}, {"sigma": 7.3715926502287e-07, "name": "q", "title": "perihelion distance", "value": ".8515167015113752", "label": "q", "units": "au"}, {"name": "tp", "title": "time of perihelion passage", "sigma": 5.57825329527316e-05, "units": "TDB", "label": "tp", "value": "2460636.924400219514"}, {"name": "om", "title": "longitude of the ascending node", "sigma": 9.71239221595399e-06, "units": "deg", "label": "node", "value": "271.3679162165378"}, {"units": "deg", "label": "peri", "value": "134.3643003742882", "title": "argument of perihelion", "name": "w", "sigma": 2.18335005842879e-05}, {"sigma": 1.85290468034908e-05, "title": "inclination", "name": "i", "value": "3.408308842682717", "label": "i", "units": "deg"}], "epoch": "2460696.5", "data": [["2.553251270910591E-11", "-3.722055122298264E-12", "2.813247783263595E-10", "-1.693097140759017E-11", "-1.010133178132735E-10", "9.34509526248195E-11"], ["-3.722055122298264E-12", "5.434037820090579E-13", "-4.100603304921334E-11", "2.35985210212759E-12", "1.491201913308394E-11", "-1.363029117598772E-11"], ["2.813247783263595E-10", "-4.100603304921334E-11", "3.111690982622585E-9", "-1.61971685818282E-10", "-1.126661988072557E-9", "1.031154038767862E-9"], ["-1.693097140759017E-11", "2.35985210212759E-12", "-1.61971685818282E-10", "9.433056255652361E-11", "-4.729697217430753E-12", "-5.466211666655221E-11"], ["-1.010133178132735E-10", "1.491201913308394E-11", "-1.126661988072557E-9", "-4.729697217430753E-12", "4.767017477640993E-10", "-3.764201244431164E-10"], ["9.34509526248195E-11", "-1.363029117598772E-11", "1.031154038767862E-9", "-5.466211666655221E-11", "-3.764201244431164E-10", "3.433255754459539E-10"]]}, "last_obs": "2025-02-21", "producer": "Davide Farnocchia", "sb_used": "SB441-N16", "epoch": "2460800.5", "pe_used": "DE441", "first_obs": "2024-12-25", "comment": null, "n_obs_used": 392, "moid": ".00282824", "data_arc": "58", "n_del_obs_used": null, "rms": ".45388", "n_dop_obs_used": null, "moid_jup": "1.27157", "two_body": null, "model_pars": [], "not_valid_after": null, "not_valid_before": null, "source": "JPL", "equinox": "J2000", "condition_code": "4"}, "object": {"neo": true, "kind": "au", "prefix": null, "orbit_id": "61", "des": "2024 YR4", "fullname": "(2024 YR4)", "spkid": "54509621", "pha": false, "orbit_class": {"code": "APO", "name": "Apollo"}}, "jd_0": 2460800.5, "jd0_suf": "jd0_246080050", "obj_suf": "obj_2024_YR4-orbit_61", "orbit_id": "61", "object_dir": "assets/data/objects/2024_YR4", "object_file": "assets/data/objects/object-2024_YR4.json", "orbit_file": "assets/data/objects/2024_YR4/orbit-obj_2024_YR4-orbit_61.json"}